HAWK-7B                 
1 56193U 23054R   26068.68903567  .00007955  00000+0  31011-3 0  9998
2 56193  97.2859 316.7839 0003661  61.5878 298.5730 15.26206341161848
STARLINK-31547          
1 59364U 24060S   26068.55542380 -.00000157  00000+0  38318-5 0  9994
2 59364  43.0032 249.2555 0001191 266.1269  93.9446 15.27570970110175
